NORAD_CAT_ID,OBJECT_NAME,OBJECT_TYPE,EPOCH,MEAN_MOTION,ECCENTRICITY,INCLINATION,RA_OF_ASC_NODE,ARG_OF_PERICENTER,MEAN_ANOMALY,BSTAR,MEAN_MOTION_DOT,MEAN_MOTION_DDOT,TLE_LINE0,TLE_LINE1,TLE_LINE2,SEMIMAJOR_AXIS,PERIOD,APOGEE,PERIGEE,DECAYED
53922.0,STARLINK-5002,PAYLOAD,2024-07-14 13:00:48,15.08838562,0.0001273,53.2163,141.5072,91.841,268.2728,-4.9274e-05,-1.072e-05,0.0,0 STARLINK-5002,1 53922U 22119AN  24196.54222380 -.00001072  00000-0 -49274-4 0  9996,2 53922  53.2163 141.5072 0001273  91.8410 268.2728 15.08838562100775,6917.885,95.438,540.63,538.869,0.0
53922.0,STARLINK-5002,PAYLOAD,2024-07-14 20:57:43,15.08837544,0.0001229,53.216,140.0199,94.8425,265.2707,2.081e-05,4.3e-07,0.0,0 STARLINK-5002,1 53922U 22119AN  24196.87342339  .00000043  00000-0  20810-4 0  9999,2 53922  53.2160 140.0199 0001229  94.8425 265.2707 15.08837544100825,6917.888,95.438,540.603,538.903,0.0
53922.0,STARLINK-5002,PAYLOAD,2024-07-15 03:19:15,15.08843681,0.0001221,53.2165,138.8304,97.8569,262.2562,6.1333e-05,6.88e-06,0.0,0 STARLINK-5002,1 53922U 22119AN  24197.13837842  .00000688  00000-0  61333-4 0  9997,2 53922  53.2165 138.8304 0001221  97.8569 262.2562 15.08843681100440,6917.869,95.437,540.579,538.889,0.0
53922.0,STARLINK-5002,PAYLOAD,2024-07-15 12:51:36,15.08825664,0.0001869,53.2158,137.0448,95.1386,264.9819,-2.802e-05,-7.34e-06,0.0,0 STARLINK-5002,1 53922U 22119AN  24197.53583495 -.00000734  00000-0 -28020-4 0  9993,2 53922  53.2158 137.0448 0001869  95.1386 264.9819 15.08825664100500,6917.924,95.438,541.082,538.496,0.0
53922.0,STARLINK-5002,PAYLOAD,2024-07-16 04:45:26,15.08842281,0.0001296,53.2162,134.07,100.5421,259.5717,6.944e-05,8.17e-06,0.0,0 STARLINK-5002,1 53922U 22119AN  24198.19822246  .00000817  00000-0  69440-4 0  9997,2 53922  53.2162 134.0700 0001296 100.5421 259.5717 15.08842281100600,6917.873,95.437,540.635,538.842,0.0
53922.0,STARLINK-5002,PAYLOAD,2024-07-16 06:20:49,15.08842285,0.0001377,53.2162,133.7735,103.1583,256.9563,7.1771e-05,8.55e-06,0.0,0 STARLINK-5002,1 53922U 22119AN  24198.26446230  .00000855  00000-0  71771-4 0  9992,2 53922  53.2162 133.7735 0001377 103.1583 256.9563 15.08842285101034,6917.873,95.437,540.691,538.786,0.0
53922.0,STARLINK-5002,PAYLOAD,2024-07-17 12:33:09,15.08845112,0.0001189,53.2156,128.1205,81.1878,278.9249,-8.5598e-06,-4.24e-06,0.0,0 STARLINK-5002,1 53922U 22119AN  24199.52302255 -.00000424  00000-0 -85598-5 0  9997,2 53922  53.2156 128.1205 0001189  81.1878 278.9249 15.08845112100801,6917.865,95.437,540.552,538.907,0.0
53922.0,STARLINK-5002,PAYLOAD,2024-07-18 12:23:56,15.08838215,0.0001223,53.2164,123.6614,99.5449,260.5681,-1.9998e-05,-6.06e-06,0.0,0 STARLINK-5002,1 53922U 22119AN  24200.51663105 -.00000606  00000-0 -19998-4 0  9995,2 53922  53.2164 123.6614 0001223  99.5449 260.5681 15.08838215100959,6917.886,95.438,540.597,538.905,0.0
53922.0,STARLINK-5002,PAYLOAD,2024-07-19 01:07:01,15.08848087,0.0001483,53.216,121.2829,85.2741,274.8421,-4.5004e-05,-1.004e-05,0.0,0 STARLINK-5002,1 53922U 22119AN  24201.04654796 -.00001004  00000-0 -45004-4 0  9990,2 53922  53.2160 121.2829 0001483  85.2741 274.8421 15.08848087101030,6917.856,95.437,540.747,538.695,0.0
53922.0,STARLINK-5002,PAYLOAD,2024-07-19 12:14:43,15.0883833,0.0001604,53.2161,119.2019,82.4494,277.668,3.8302e-05,3.22e-06,0.0,0 STARLINK-5002,1 53922U 22119AN  24201.51023099  .00000322  00000-0  38302-4 0  9991,2 53922  53.2161 119.2019 0001604  82.4494 277.6680 15.08838330101104,6917.885,95.438,540.86,538.641,0.0
53922.0,STARLINK-5002,PAYLOAD,2024-07-19 21:47:02,15.08838918,0.0001639,53.2151,117.4177,75.1379,284.9794,0.00015322,2.151e-05,0.0,0 STARLINK-5002,1 53922U 22119AN  24201.90766772  .00002151  00000-0  15322-3 0  9994,2 53922  53.2151 117.4177 0001639  75.1379 284.9794 15.08838918101588,6917.884,95.438,540.883,538.615,0.0
53922.0,STARLINK-5002,PAYLOAD,2024-07-20 04:08:32,15.08868545,0.0001402,53.2166,116.2251,85.4799,274.6353,0.00026024,3.859e-05,0.0,0 STARLINK-5002,1 53922U 22119AN  24202.17260254  .00003859  00000-0  26024-3 0  9995,2 53922  53.2166 116.2251 0001402  85.4799 274.6353 15.08868545101207,6917.793,95.436,540.628,538.688,0.0
53922.0,STARLINK-5002,PAYLOAD,2024-07-20 21:37:50,15.08832508,0.0001534,53.2159,112.956,93.0609,267.0559,-3.8537e-05,-9.01e-06,0.0,0 STARLINK-5002,1 53922U 22119AN  24202.90127535 -.00000901  00000-0 -38537-4 0  9990,2 53922  53.2159 112.9560 0001534  93.0609 267.0559 15.08832508101738,6917.903,95.438,540.829,538.707,0.0
53922.0,STARLINK-5002,PAYLOAD,2024-07-21 03:59:22,15.08841109,0.0001387,53.2157,111.7654,105.0996,255.0149,-7.6709e-05,-1.509e-05,0.0,0 STARLINK-5002,1 53922U 22119AN  24203.16623054 -.00001509  00000-0 -76709-4 0  9994,2 53922  53.2157 111.7654 0001387 105.0996 255.0149 15.08841109101353,6917.877,95.437,540.702,538.782,0.0
53922.0,STARLINK-5002,PAYLOAD,2024-07-21 21:28:37,15.08833655,0.0001555,53.2159,108.4937,94.9545,265.1625,-8.8537e-05,-1.697e-05,0.0,0 STARLINK-5002,1 53922U 22119AN  24203.89487917 -.00001697  00000-0 -88537-4 0  9990,2 53922  53.2159 108.4937 0001555  94.9545 265.1625 15.08833655101881,6917.9,95.438,540.841,538.689,0.0
53922.0,STARLINK-5002,PAYLOAD,2024-07-21 23:04:00,15.08833631,0.0001528,53.2163,108.1962,95.4072,264.7094,-8.3023e-05,-1.609e-05,0.0,0 STARLINK-5002,1 53922U 22119AN  24203.96111915 -.00001609  00000-0 -83023-4 0  9998,2 53922  53.2163 108.1962 0001528  95.4072 264.7094 15.08833631101476,6917.9,95.438,540.822,538.708,0.0
53922.0,STARLINK-5002,PAYLOAD,2024-07-22 18:08:37,15.08837355,0.0001413,53.2163,104.6269,96.4636,263.6517,0.00011705,1.575e-05,0.0,0 STARLINK-5002,1 53922U 22119AN  24204.75599166  .00001575  00000-0  11705-3 0  9991,2 53922  53.2163 104.6269 0001413  96.4636 263.6517 15.08837355101595,6917.888,95.438,540.731,538.776,0.0
53922.0,STARLINK-5002,PAYLOAD,2024-07-22 22:54:46,15.08843634,0.0001389,53.2164,103.7341,95.9259,264.1891,0.00014087,1.955e-05,0.0,0 STARLINK-5002,1 53922U 22119AN  24204.95470776  .00001955  00000-0  14087-3 0  9996,2 53922  53.2164 103.7341 0001389  95.9259 264.1891 15.08843634102043,6917.869,95.437,540.695,538.773,0.0
53922.0,STARLINK-5002,PAYLOAD,2024-07-23 10:02:29,15.08839468,0.0001399,53.216,101.646,66.5971,293.5168,7.1952e-05,8.57e-06,0.0,0 STARLINK-5002,1 53922U 22119AN  24205.41839203  .00000857  00000-0  71952-4 0  9997,2 53922  53.2160 101.6460 0001399  66.5971 293.5168 15.08839468102115,6917.882,95.438,540.715,538.779,0.0
53922.0,STARLINK-5002,PAYLOAD,2024-07-23 22:45:36,15.08821354,0.0001191,53.2165,99.2802,69.1437,290.9683,-7.2481e-05,-1.441e-05,0.0,0 STARLINK-5002,1 53922U 22119AN  24205.94833651 -.00001441  00000-0 -72481-4 0  9996,2 53922  53.2165  99.2802 0001191  69.1437 290.9683 15.08821354102194,6917.937,95.439,540.626,538.978,0.0
53922.0,STARLINK-5002,PAYLOAD,2024-07-24 03:31:45,15.08825956,0.0001451,53.2187,98.3839,101.5819,258.5336,-3.7947e-05,-8.92e-06,0.0,0 STARLINK-5002,1 53922U 22119AN  24206.14705355 -.00000892  00000-0 -37947-4 0  9995,2 53922  53.2187  98.3839 0001451 101.5819 258.5336 15.08825956101806,6917.923,95.438,540.792,538.785,0.0
53922.0,STARLINK-5002,PAYLOAD,2024-07-24 22:36:21,15.08854365,0.0001253,53.2176,94.8192,90.917,269.1965,8.0621e-05,9.96e-06,0.0,0 STARLINK-5002,1 53922U 22119AN  24206.94191296  .00000996  00000-0  80621-4 0  9996,2 53922  53.2176  94.8192 0001253  90.9170 269.1965 15.08854365102340,6917.836,95.437,540.568,538.835,0.0
53922.0,STARLINK-5002,PAYLOAD,2024-07-25 00:11:44,15.08854631,0.0001336,53.2171,94.5213,132.4265,227.684,3.7764e-05,3.13e-06,0.0,0 STARLINK-5002,1 53922U 22119AN  24207.00815120  .00000313  00000-0  37764-4 0  9996,2 53922  53.2171  94.5213 0001336 132.4265 227.6840 15.08854631101936,6917.836,95.437,540.625,538.776,0.0
53922.0,STARLINK-5002,PAYLOAD,2024-07-25 16:05:36,15.08831219,0.0001282,53.2178,91.5484,99.7717,260.342,0.00018413,2.643e-05,0.0,0 STARLINK-5002,1 53922U 22119AN  24207.67056477  .00002643  00000-0  18413-3 0  9998,2 53922  53.2178  91.5484 0001282  99.7717 260.3420 15.08831219102034,6917.907,95.438,540.659,538.885,0.0
53922.0,STARLINK-5002,PAYLOAD,2024-07-25 22:27:09,15.08835442,0.000109,53.2166,90.3567,112.3824,247.7283,0.00010028,1.308e-05,0.0,0 STARLINK-5002,1 53922U 22119AN  24207.93552530  .00001308  00000-0  10028-3 0  9999,2 53922  53.2166  90.3567 0001090 112.3824 247.7283 15.08835442102496,6917.894,95.438,540.513,539.005,0.0
53922.0,STARLINK-5002,PAYLOAD,2024-07-26 01:37:55,15.08836781,0.0001039,53.2153,89.7611,121.3169,238.7925,0.00011848,1.598e-05,0.0,0 STARLINK-5002,1 53922U 22119AN  24208.06800343  .00001598  00000-0  11848-3 0  9994,2 53922  53.2153  89.7611 0001039 121.3169 238.7925 15.08836781102512,6917.89,95.438,540.474,539.036,0.0
53922.0,STARLINK-5002,PAYLOAD,2024-07-26 09:34:50,15.08844252,0.0001008,53.2153,88.276,97.198,262.9127,0.00013802,1.91e-05,0.0,0 STARLINK-5002,1 53922U 22119AN  24208.39919885  .00001910  00000-0  13802-3 0  9992,2 53922  53.2153  88.2760 0001008  97.1980 262.9127 15.08844252102142,6917.867,95.437,540.43,539.035,0.0
53922.0,STARLINK-5002,PAYLOAD,2024-07-26 22:17:56,15.08839727,0.0001001,53.2156,85.8975,120.0327,240.0764,-0.00016482,-2.91e-05,0.0,0 STARLINK-5002,1 53922U 22119AN  24208.92912987 -.00002910  00000-0 -16482-3 0  9997,2 53922  53.2156  85.8975 0001001 120.0327 240.0764 15.08839727102224,6917.881,95.438,540.439,539.054,0.0
53922.0,STARLINK-5002,PAYLOAD,2024-07-27 22:08:42,15.08854022,0.0001188,53.2171,81.436,98.1044,262.0083,0.00013862,1.92e-05,0.0,0 STARLINK-5002,1 53922U 22119AN  24209.92271232  .00001920  00000-0  13862-3 0  9996,2 53922  53.2171  81.4360 0001188  98.1044 262.0083 15.08854022102793,6917.838,95.437,540.524,538.881,0.0
53922.0,STARLINK-5002,PAYLOAD,2024-07-28 20:24:07,15.0883542,0.0001434,53.2181,77.2703,127.3912,232.7211,9.606e-05,1.241e-05,0.0,0 STARLINK-5002,1 53922U 22119AN  24210.85008369  .00001241  00000-0  96060-4 0  9997,2 53922  53.2181  77.2703 0001434 127.3912 232.7211 15.08835420102519,6917.894,95.438,540.751,538.767,0.0
